*******************************************************************************
Ephemeris / WWW_USER Thu Dec  5 18:35:37 2024 Pasadena, USA      / Horizons    
*******************************************************************************
Target body name: Titan (606)                     {source: sat441l}
Center body name: Earth (399)                     {source: DE441}
Center-site name: Mauna Kea
*******************************************************************************
Start time      : A.D. 2018-Dec-31 04:03:00.0000 UT      
Stop  time      : A.D. 2018-Dec-31 16:46:00.0000 UT      
Step-size       : 1 minutes
*******************************************************************************
Target pole/equ : IAU_TITAN                       {West-longitude positive}
Target radii    : 2575.15, 2574.78, 2574.47 km    {Equator_a, b, pole_c}       
Center geodetic : 204.5278, 19.8260847, 4.21024   {E-lon(deg),Lat(deg),Alt(km)}
Center cylindric: 204.5278, 6006.35451, 2151.0229 {E-lon(deg),Dxy(km),Dz(km)}
Center pole/equ : ITRF93                          {East-longitude positive}
Center radii    : 6378.137, 6378.137, 6356.752 km {Equator_a, b, pole_c}       
Target primary  : Saturn
Vis. interferer : MOON (R_eq= 1737.400) km        {source: DE441}
Rel. light bend : Sun                             {source: DE441}
Rel. lght bnd GM: 1.3271E+11 km^3/s^2                                          
Atmos refraction: NO (AIRLESS)
RA format       : HMS
Time format     : CAL 
Calendar mode   : Mixed Julian/Gregorian
RTS-only print  : NO       
EOP file        : eop.241205.p250303                                           
EOP coverage    : DATA-BASED 1962-JAN-20 TO 2024-DEC-05. PREDICTS-> 2025-MAR-02
Units conversion: 1 au= 149597870.700 km, c= 299792.458 km/s, 1 day= 86400.0 s 
Table cut-offs 1: Elevation (-90.0deg=NO ),Airmass (>38.000=NO), Daylight (YES)
Table cut-offs 2: Solar elongation (  0.0,180.0=NO ),Local Hour Angle( 0.0=NO )
Table cut-offs 3: RA/DEC angular rate (     0.0=NO )                           
*******************************************************************************
 Date__(UT)__HR:MN     R.A._________(ICRF)_________DEC
******************************************************
$$SOE
 2018-Dec-31 11:06     18 47 44.220865 -22 29 21.20953
 2018-Dec-31 11:07     18 47 44.242601 -22 29 21.17142
 2018-Dec-31 11:08     18 47 44.264337 -22 29 21.13332
 2018-Dec-31 11:09     18 47 44.286075 -22 29 21.09522
 2018-Dec-31 11:10     18 47 44.307812 -22 29 21.05713
 2018-Dec-31 11:11     18 47 44.329551 -22 29 21.01904
 2018-Dec-31 11:12     18 47 44.351290 -22 29 20.98096
 2018-Dec-31 11:13     18 47 44.373029 -22 29 20.94289
 2018-Dec-31 11:14     18 47 44.394769 -22 29 20.90482
 2018-Dec-31 11:15     18 47 44.416510 -22 29 20.86676
 2018-Dec-31 11:16     18 47 44.438251 -22 29 20.82871
 2018-Dec-31 11:17     18 47 44.459993 -22 29 20.79066
 2018-Dec-31 11:18     18 47 44.481736 -22 29 20.75262
 2018-Dec-31 11:19     18 47 44.503479 -22 29 20.71459
 2018-Dec-31 11:20     18 47 44.525222 -22 29 20.67656
 2018-Dec-31 11:21     18 47 44.546966 -22 29 20.63854
 2018-Dec-31 11:22     18 47 44.568711 -22 29 20.60053
 2018-Dec-31 11:23     18 47 44.590456 -22 29 20.56252
 2018-Dec-31 11:24     18 47 44.612202 -22 29 20.52452
 2018-Dec-31 11:25     18 47 44.633948 -22 29 20.48652
 2018-Dec-31 11:26     18 47 44.655695 -22 29 20.44853
 2018-Dec-31 11:27     18 47 44.677442 -22 29 20.41055
 2018-Dec-31 11:28     18 47 44.699190 -22 29 20.37258
 2018-Dec-31 11:29     18 47 44.720939 -22 29 20.33461
 2018-Dec-31 11:30     18 47 44.742688 -22 29 20.29664
 2018-Dec-31 11:31     18 47 44.764437 -22 29 20.25869
 2018-Dec-31 11:32     18 47 44.786187 -22 29 20.22074
 2018-Dec-31 11:33     18 47 44.807937 -22 29 20.18279
 2018-Dec-31 11:34     18 47 44.829688 -22 29 20.14486
 2018-Dec-31 11:35     18 47 44.851440 -22 29 20.10693
 2018-Dec-31 11:36     18 47 44.873192 -22 29 20.06900
 2018-Dec-31 11:37     18 47 44.894944 -22 29 20.03108
 2018-Dec-31 11:38     18 47 44.916697 -22 29 19.99317
 2018-Dec-31 11:39     18 47 44.938450 -22 29 19.95527
 2018-Dec-31 11:40     18 47 44.960204 -22 29 19.91737
 2018-Dec-31 11:41     18 47 44.981958 -22 29 19.87948
 2018-Dec-31 11:42     18 47 45.003713 -22 29 19.84159
 2018-Dec-31 11:43     18 47 45.025468 -22 29 19.80371
 2018-Dec-31 11:44     18 47 45.047224 -22 29 19.76584
 2018-Dec-31 11:45     18 47 45.068980 -22 29 19.72797
 2018-Dec-31 11:46     18 47 45.090737 -22 29 19.69011
 2018-Dec-31 11:47     18 47 45.112494 -22 29 19.65226
 2018-Dec-31 11:48     18 47 45.134251 -22 29 19.61441
 2018-Dec-31 11:49     18 47 45.156009 -22 29 19.57657
 2018-Dec-31 11:50     18 47 45.177767 -22 29 19.53873
 2018-Dec-31 11:51     18 47 45.199526 -22 29 19.50090
 2018-Dec-31 11:52     18 47 45.221285 -22 29 19.46308
 2018-Dec-31 11:53     18 47 45.243045 -22 29 19.42527
 2018-Dec-31 11:54     18 47 45.264805 -22 29 19.38746
 2018-Dec-31 11:55     18 47 45.286565 -22 29 19.34965
 2018-Dec-31 11:56     18 47 45.308326 -22 29 19.31185
 2018-Dec-31 11:57     18 47 45.330087 -22 29 19.27406
 2018-Dec-31 11:58     18 47 45.351849 -22 29 19.23628
 2018-Dec-31 11:59     18 47 45.373611 -22 29 19.19850
 2018-Dec-31 12:00     18 47 45.395373 -22 29 19.16073
 2018-Dec-31 12:01     18 47 45.417136 -22 29 19.12296
 2018-Dec-31 12:02     18 47 45.438899 -22 29 19.08520
 2018-Dec-31 12:03     18 47 45.460662 -22 29 19.04745
 2018-Dec-31 12:04     18 47 45.482426 -22 29 19.00970
 2018-Dec-31 12:05     18 47 45.504190 -22 29 18.97196
 2018-Dec-31 12:06     18 47 45.525955 -22 29 18.93422
 2018-Dec-31 12:07     18 47 45.547720 -22 29 18.89650
 2018-Dec-31 12:08  m  18 47 45.569485 -22 29 18.85877
 2018-Dec-31 12:09  m  18 47 45.591251 -22 29 18.82106
 2018-Dec-31 12:10  m  18 47 45.613017 -22 29 18.78335
 2018-Dec-31 12:11  m  18 47 45.634783 -22 29 18.74564
 2018-Dec-31 12:12  m  18 47 45.656550 -22 29 18.70794
 2018-Dec-31 12:13  m  18 47 45.678317 -22 29 18.67025
 2018-Dec-31 12:14  m  18 47 45.700084 -22 29 18.63257
 2018-Dec-31 12:15  m  18 47 45.721852 -22 29 18.59489
 2018-Dec-31 12:16  m  18 47 45.743620 -22 29 18.55721
 2018-Dec-31 12:17  m  18 47 45.765388 -22 29 18.51955
 2018-Dec-31 12:18  m  18 47 45.787156 -22 29 18.48188
 2018-Dec-31 12:19  m  18 47 45.808925 -22 29 18.44423
 2018-Dec-31 12:20  m  18 47 45.830695 -22 29 18.40658
 2018-Dec-31 12:21  m  18 47 45.852464 -22 29 18.36894
 2018-Dec-31 12:22  m  18 47 45.874234 -22 29 18.33130
 2018-Dec-31 12:23  m  18 47 45.896004 -22 29 18.29367
 2018-Dec-31 12:24  m  18 47 45.917774 -22 29 18.25604
 2018-Dec-31 12:25  m  18 47 45.939545 -22 29 18.21843
 2018-Dec-31 12:26  m  18 47 45.961316 -22 29 18.18081
 2018-Dec-31 12:27  m  18 47 45.983087 -22 29 18.14321
 2018-Dec-31 12:28  m  18 47 46.004859 -22 29 18.10560
 2018-Dec-31 12:29  m  18 47 46.026630 -22 29 18.06801
 2018-Dec-31 12:30  m  18 47 46.048402 -22 29 18.03042
 2018-Dec-31 12:31  m  18 47 46.070175 -22 29 17.99284
 2018-Dec-31 12:32  m  18 47 46.091947 -22 29 17.95526
 2018-Dec-31 12:33  m  18 47 46.113720 -22 29 17.91769
 2018-Dec-31 12:34  m  18 47 46.135493 -22 29 17.88012
 2018-Dec-31 12:35  m  18 47 46.157266 -22 29 17.84256
 2018-Dec-31 12:36  m  18 47 46.179040 -22 29 17.80501
 2018-Dec-31 12:37  m  18 47 46.200813 -22 29 17.76746
 2018-Dec-31 12:38  m  18 47 46.222587 -22 29 17.72992
 2018-Dec-31 12:39  m  18 47 46.244362 -22 29 17.69239
 2018-Dec-31 12:40  m  18 47 46.266136 -22 29 17.65486
 2018-Dec-31 12:41  m  18 47 46.287911 -22 29 17.61733
 2018-Dec-31 12:42  m  18 47 46.309686 -22 29 17.57981
 2018-Dec-31 12:43  m  18 47 46.331461 -22 29 17.54230
 2018-Dec-31 12:44  m  18 47 46.353236 -22 29 17.50479
 2018-Dec-31 12:45  m  18 47 46.375011 -22 29 17.46729
 2018-Dec-31 12:46  m  18 47 46.396787 -22 29 17.42980
 2018-Dec-31 12:47  m  18 47 46.418563 -22 29 17.39231
 2018-Dec-31 12:48  m  18 47 46.440339 -22 29 17.35482
 2018-Dec-31 12:49  m  18 47 46.462115 -22 29 17.31735
 2018-Dec-31 12:50  m  18 47 46.483892 -22 29 17.27987
 2018-Dec-31 12:51  m  18 47 46.505669 -22 29 17.24241
 2018-Dec-31 12:52  m  18 47 46.527445 -22 29 17.20495
 2018-Dec-31 12:53  m  18 47 46.549222 -22 29 17.16749
 2018-Dec-31 12:54  m  18 47 46.571000 -22 29 17.13004
 2018-Dec-31 12:55  m  18 47 46.592777 -22 29 17.09260
 2018-Dec-31 12:56  m  18 47 46.614554 -22 29 17.05516
 2018-Dec-31 12:57  m  18 47 46.636332 -22 29 17.01773
 2018-Dec-31 12:58  m  18 47 46.658110 -22 29 16.98030
 2018-Dec-31 12:59  m  18 47 46.679888 -22 29 16.94288
 2018-Dec-31 13:00  m  18 47 46.701666 -22 29 16.90547
 2018-Dec-31 13:01  m  18 47 46.723444 -22 29 16.86806
 2018-Dec-31 13:02  m  18 47 46.745223 -22 29 16.83065
 2018-Dec-31 13:03  m  18 47 46.767001 -22 29 16.79325
 2018-Dec-31 13:04  m  18 47 46.788780 -22 29 16.75586
 2018-Dec-31 13:05  m  18 47 46.810559 -22 29 16.71847
 2018-Dec-31 13:06  m  18 47 46.832338 -22 29 16.68109
 2018-Dec-31 13:07  m  18 47 46.854117 -22 29 16.64371
 2018-Dec-31 13:08  m  18 47 46.875896 -22 29 16.60634
 2018-Dec-31 13:09  m  18 47 46.897675 -22 29 16.56898
 2018-Dec-31 13:10  m  18 47 46.919455 -22 29 16.53162
 2018-Dec-31 13:11  m  18 47 46.941234 -22 29 16.49426
 2018-Dec-31 13:12  m  18 47 46.963014 -22 29 16.45691
 2018-Dec-31 13:13  m  18 47 46.984794 -22 29 16.41957
 2018-Dec-31 13:14  m  18 47 47.006573 -22 29 16.38223
 2018-Dec-31 13:15  m  18 47 47.028353 -22 29 16.34490
 2018-Dec-31 13:16  m  18 47 47.050133 -22 29 16.30757
 2018-Dec-31 13:17  m  18 47 47.071913 -22 29 16.27025
 2018-Dec-31 13:18  m  18 47 47.093694 -22 29 16.23293
 2018-Dec-31 13:19  m  18 47 47.115474 -22 29 16.19562
 2018-Dec-31 13:20  m  18 47 47.137254 -22 29 16.15831
 2018-Dec-31 13:21  m  18 47 47.159035 -22 29 16.12101
 2018-Dec-31 13:22  m  18 47 47.180815 -22 29 16.08372
 2018-Dec-31 13:23  m  18 47 47.202596 -22 29 16.04643
 2018-Dec-31 13:24  m  18 47 47.224377 -22 29 16.00914
 2018-Dec-31 13:25  m  18 47 47.246157 -22 29 15.97186
 2018-Dec-31 13:26  m  18 47 47.267938 -22 29 15.93459
